Total gap duration: 6 days, 18:59:43.141294
Imaginary_52
1 54830U 22175W   24100.52217282  .00001245  00000+0  96324-4 0  5
2 54830  53.2156 287.4860 0001364  80.1829  331.9317 15.08840119 724288
Total gap duration: 6 days, 18:59:46.749324
Imaginary_53
1 54831U 22175W   24100.52217282  .00001245  00000+0  96324-4 0  6
2 54831  53.2156 287.4860 0001364  80.1829  332.9317 15.08840119 724280
Total gap duration: 6 days, 18:59:50.340857
Imaginary_54
1 54832U 22175W   24100.52217282  .00001245  00000+0  96324-4 0  7
2 54832  53.2156 287.4860 0001364  80.1829  333.9317 15.08840119 724282
Total gap duration: 6 days, 18:59:55.381179
Imaginary_55
1 54833U 22175W   24100.52217282  .00001245  00000+0  96324-4 0  8
2 54833  53.2156 287.4860 0001364  80.1829  334.9317 15.08840119 724284
Total gap duration: 6 days, 18:59:19.532494
Imaginary_56
1 54834U 22175W   24100.52217282  .00001245  00000+0  96324-4 0  9
2 54834  53.2156 287.4860 0001364  80.1829  335.9317 15.08840119 724286
Total gap duration: 6 days, 18:58:57.987449
Imaginary_57
1 54835U 22175W   24100.52217282  .00001245  00000+0  96324-4 0  0
2 54835  53.2156 287.4860 0001364  80.1829  336.9317 15.08840119 724288
Total gap duration: 6 days, 18:58:44.194685
Imaginary_58
1 54836U 22175W   24100.52217282  .00001245  00000+0  96324-4 0  1
2 54836  53.2156 287.4860 0001364  80.1829  337.9317 15.08840119 724280
Total gap duration: 6 days, 18:58:34.147866
Imaginary_59
1 54837U 22175W   24100.52217282  .00001245  00000+0  96324-4 0  2
2 54837  53.2156 287.4860 0001364  80.1829  338.9317 15.08840119 724282
Total gap duration: 6 days, 18:58:26.815137
Imaginary_60
1 54838U 22175W   24100.52217282  .00001245  00000+0  96324-4 0  3
2 54838  53.2156 287.4860 0001364  80.1829  339.9317 15.08840119 724284
Total gap duration: 6 days, 18:58:21.414487
Imaginary_61
1 54839U 22175W   24100.52217282  .00001245  00000+0  96324-4 0  4
2 54839  53.2156 287.4860 0001364  80.1829  340.9317 15.08840119 724287
Total gap duration: 6 days, 18:58:17.097269
Imaginary_62
1 54840U 22175W   24100.52217282  .00001245  00000+0  96324-4 0  6
2 54840  53.2156 287.4860 0001364  80.1829  341.9317 15.08840119 724280
Total gap duration: 6 days, 18:58:14.542421
Imaginary_63
1 54841U 22175W   24100.52217282  .00001245  00000+0  96324-4 0  7
2 54841  53.2156 287.4860 0001364  80.1829  342.9317 15.08840119 724282
Total gap duration: 6 days, 18:58:12.914831
Imaginary_64
1 54842U 22175W   24100.52217282  .00001245  00000+0  96324-4 0  8
2 54842  53.2156 287.4860 0001364  80.1829  343.9317 15.08840119 724284
Total gap duration: 6 days, 18:58:11.722846
Imaginary_65
1 54843U 22175W   24100.52217282  .00001245  00000+0  96324-4 0  9
2 54843  53.2156 287.4860 0001364  80.1829  344.9317 15.08840119 724286
Total gap duration: 6 days, 18:58:11.833847
Imaginary_66
1 54844U 22175W   24100.52217282  .00001245  00000+0  96324-4 0  0
2 54844  53.2156 287.4860 0001364  80.1829  345.9317 15.08840119 724288
Total gap duration: 6 days, 18:58:13.175058
Imaginary_67
1 54845U 22175W   24100.52217282  .00001245  00000+0  96324-4 0  1
2 54845  53.2156 287.4860 0001364  80.1829  346.9317 15.08840119 724280
Total gap duration: 6 days, 18:58:15.246947
Imaginary_68
1 54846U 22175W   24100.52217282  .00001245  00000+0  96324-4 0  2
2 54846  53.2156 287.4860 0001364  80.1829  347.9317 15.08840119 724282
Total gap duration: 6 days, 18:58:19.197275
Imaginary_69
1 54847U 22175W   24100.52217282  .00001245  00000+0  96324-4 0  3
2 54847  53.2156 287.4860 0001364  80.1829  348.9317 15.08840119 724284
Total gap duration: 6 days, 18:58:23.508942
Imaginary_70
1 54848U 22175W   24100.52217282  .00001245  00000+0  96324-4 0  4
2 54848  53.2156 287.4860 0001364  80.1829  349.9317 15.08840119 724286
Total gap duration: 6 days, 18:58:28.883561
Imaginary_71
1 54849U 22175W   24100.52217282  .00001245  00000+0  96324-4 0  5
2 54849  53.2156 287.4860 0001364  80.1829  350.9317 15.08840119 724289
Total gap duration: 6 days, 18:58:35.689158
Imaginary_72
1 54850U 22175W   24100.52217282  .00001245  00000+0  96324-4 0  7
2 54850  53.2156 287.4860 0001364  80.1829  351.9317 15.08840119 724282
Total gap duration: 6 days, 18:58:45.148896
Imaginary_73
1 54851U 22175W   24100.52217282  .00001245  00000+0  96324-4 0  8
2 54851  53.2156 287.4860 0001364  80.1829  352.9317 15.08840119 724284
Total gap duration: 6 days, 18:58:55.640248
Imaginary_74
1 54852U 22175W   24100.52217282  .00001245  00000+0  96324-4 0  9
2 54852  53.2156 287.4860 0001364  80.1829  353.9317 15.08840119 724286
Total gap duration: 6 days, 19:00:05.662559
Imaginary_75
1 54853U 22175W   24100.52217282  .00001245  00000+0  96324-4 0  0
2 54853  53.2156 287.4860 0001364  80.1829  354.9317 15.08840119 724288
Total gap duration: 6 days, 19:02:10.888715
Imaginary_76
1 54854U 22175W   24100.52217282  .00001245  00000+0  96324-4 0  1
2 54854  53.2156 287.4860 0001364  80.1829  355.9317 15.08840119 724280
Total gap duration: 6 days, 19:04:59.384520
Imaginary_77
1 54855U 22175W   24100.52217282  .00001245  00000+0  96324-4 0  2
2 54855  53.2156 287.4860 0001364  80.1829  356.9317 15.08840119 724282
Total gap duration: 6 days, 19:07:34.155961
Imaginary_78
1 54856U 22175W   24100.52217282  .00001245  00000+0  96324-4 0  3
2 54856  53.2156 287.4860 0001364  80.1829  357.9317 15.08840119 724284
Total gap duration: 6 days, 19:10:35.307141
Imaginary_79
1 54857U 22175W   24100.52217282  .00001245  00000+0  96324-4 0  4
2 54857  53.2156 287.4860 0001364  80.1829  358.9317 15.08840119 724286
Total gap duration: 6 days, 19:13:52.457391
Imaginary_80
1 54858U 22175W   24100.52217282  .00001245  00000+0  96324-4 0  5
2 54858  53.2156 287.4860 0001364  80.1829  359.9317 15.08840119 724288
Total gap duration: 6 days, 19:17:10.845533
Imaginary_81
1 54859U 22175W   24100.52217282  .00001245  00000+0  96324-4 0  6
2 54859  53.2156 287.4860 0001364  80.1829    0.9317 15.08840119 724282
Total gap duration: 6 days, 19:20:48.649701
Imaginary_82
1 54860U 22175W   24100.52217282  .00001245  00000+0  96324-4 0  8
2 54860  53.2156 287.4860 0001364  80.1829    1.9317 15.08840119 724285
Total gap duration: 6 days, 19:24:55.531929
Imaginary_83
1 54861U 22175W   24100.52217282  .00001245  00000+0  96324-4 0  9
2 54861  53.2156 287.4860 0001364  80.1829    2.9317 15.08840119 724287
Total gap duration: 6 days, 19:29:20.255455
Imaginary_84
1 54862U 22175W   24100.52217282  .00001245  00000+0  96324-4 0  0
2 54862  53.2156 287.4860 0001364  80.1829    3.9317 15.08840119 724289
Total gap duration: 6 days, 19:33:44.554125
Imaginary_85
1 54863U 22175W   24100.52217282  .00001245  00000+0  96324-4 0  1
2 54863  53.2156 287.4860 0001364  80.1829    4.9317 15.08840119 724281
Total gap duration: 6 days, 19:38:09.152889
Imaginary_86
1 54864U 22175W   24100.52217282  .00001245  00000+0  96324-4 0  2
2 54864  53.2156 287.4860 0001364  80.1829    5.9317 15.08840119 724283
Total gap duration: 6 days, 19:42:33.608788
Imaginary_87
1 54865U 22175W   24100.52217282  .00001245  00000+0  96324-4 0  3
2 54865  53.2156 287.4860 0001364  80.1829    6.9317 15.08840119 724285
Total gap duration: 6 days, 19:46:58.728573
Imaginary_88
1 54866U 22175W   24100.52217282  .00001245  00000+0  96324-4 0  4
2 54866  53.2156 287.4860 0001364  80.1829    7.9317 15.08840119 724287
Total gap duration: 6 days, 19:51:23.369020
Imaginary_89
1 54867U 22175W   24100.52217282  .00001245  00000+0  96324-4 0  5
2 54867  53.2156 287.4860 0001364  80.1829    8.9317 15.08840119 724289
